{"fetched_at":"2026-07-13T18:17:10.927Z","source":"https://celestrak.org/NORAD/elements/gp.php?NAME=PLEIADES&FORMAT=JSON","constellation":"pleiades-neo","records":[{"OBJECT_NAME":"PLEIADES NEO 3","OBJECT_ID":"2021-034A","EPOCH":"2026-07-13T07:41:45.830976","CLASSIFICATION_TYPE":"U","MEAN_MOTION":14.81680857,"ECCENTRICITY":0.00014015,"INCLINATION":97.8945,"RA_OF_ASC_NODE":268.7113,"ARG_OF_PERICENTER":95.5587,"MEAN_ANOMALY":264.5786,"EPHEMERIS_TYPE":0,"NORAD_CAT_ID":48268,"ELEMENT_SET_NO":999,"REV_AT_EPOCH":28152,"BSTAR":0.000098371922,"MEAN_MOTION_DOT":0.00000722,"MEAN_MOTION_DDOT":0},{"OBJECT_NAME":"PLEIADES NEO 4","OBJECT_ID":"2021-073E","EPOCH":"2026-07-12T21:09:39.652416","CLASSIFICATION_TYPE":"U","MEAN_MOTION":14.81673277,"ECCENTRICITY":0.00013159,"INCLINATION":97.894,"RA_OF_ASC_NODE":268.2748,"ARG_OF_PERICENTER":92.325,"MEAN_ANOMALY":267.8113,"EPHEMERIS_TYPE":0,"NORAD_CAT_ID":49070,"ELEMENT_SET_NO":999,"REV_AT_EPOCH":26517,"BSTAR":0.000005610748,"MEAN_MOTION_DOT":-8e-8,"MEAN_MOTION_DDOT":0}]}
